{
    "links": {
        "self": "http://www.neowsapp.com/rest/v1/neo/3401100?api_key=iIulBulltgU6a56xZRHN4H3l9WmuAYTsLGpBGhQ2"
    },
    "id": "3401100",
    "neo_reference_id": "3401100",
    "name": "(2008 BC15)",
    "designation": "2008 BC15",
    "nasa_jpl_url": "http://ssd.jpl.nasa.gov/sbdb.cgi?sstr=3401100",
    "absolute_magnitude_h": 26.6,
    "estimated_diameter": {
        "kilometers": {
            "estimated_diameter_min": 0.0127219879,
            "estimated_diameter_max": 0.0284472297
        },
        "meters": {
            "estimated_diameter_min": 12.7219878539,
            "estimated_diameter_max": 28.4472296503
        },
        "miles": {
            "estimated_diameter_min": 0.0079050743,
            "estimated_diameter_max": 0.0176762835
        },
        "feet": {
            "estimated_diameter_min": 41.7388066307,
            "estimated_diameter_max": 93.330808926
        }
    },
    "is_potentially_hazardous_asteroid": false,
    "close_approach_data": [
        {
            "close_approach_date": "2008-01-31",
            "close_approach_date_full": "2008-Jan-31 13:19",
            "epoch_date_close_approach": 1201785540000,
            "relative_velocity": {
                "kilometers_per_second": "20.697893414",
                "kilometers_per_hour": "74512.4162905678",
                "miles_per_hour": "46299.1177778808"
            },
            "miss_distance": {
                "astronomical": "0.001977399",
                "lunar": "0.769208211",
                "kilometers": "295814.67854013",
                "miles": "183810.717828594"
            },
            "orbiting_body": "Earth"
        },
        {
            "close_approach_date": "2008-01-31",
            "close_approach_date_full": "2008-Jan-31 15:05",
            "epoch_date_close_approach": 1201791900000,
            "relative_velocity": {
                "kilometers_per_second": "19.7838641436",
                "kilometers_per_hour": "71221.9109169157",
                "miles_per_hour": "44254.5257027913"
            },
            "miss_distance": {
                "astronomical": "0.0014474247",
                "lunar": "0.5630482083",
                "kilometers": "216531.652105389",
                "miles": "134546.5296128082"
            },
            "orbiting_body": "Moon"
        }
    ],
    "orbital_data": {
        "orbit_id": "8",
        "orbit_determination_date": "2017-04-06 09:04:38",
        "first_observation_date": "2008-01-30",
        "last_observation_date": "2008-01-31",
        "data_arc_in_days": 1,
        "observations_used": 25,
        "orbit_uncertainty": "8",
        "minimum_orbit_intersection": ".00122859",
        "jupiter_tisserand_invariant": "3.265",
        "epoch_osculation": "2454496.5",
        "eccentricity": ".7140137139746139",
        "semi_major_axis": "2.209941795603368",
        "inclination": "3.528174458838685",
        "ascending_node_longitude": "309.8605941091679",
        "orbital_period": "1199.968042976186",
        "perihelion_distance": ".6320130464568803",
        "perihelion_argument": "263.1589664277518",
        "aphelion_distance": "3.787870544749856",
        "perihelion_time": "2454541.381468386077",
        "mean_anomaly": "346.5352009050891",
        "mean_motion": ".3000079894687199",
        "equinox": "J2000",
        "orbit_class": {
            "orbit_class_type": "APO",
            "orbit_class_description": "Near-Earth asteroid orbits which cross the Earth’s orbit similar to that of 1862 Apollo",
            "orbit_class_range": "a (semi-major axis) > 1.0 AU; q (perihelion) < 1.017 AU"
        }
    },
    "is_sentry_object": false
}